{"type": "FeatureCollection", "features": [ {"type": "Feature", "properties": {"norad_id": 37532, "name": "COSMOS 2251 DEB", "group": "cosmos-2251-debris", "lat": 68.94044734209999, "lon": -26.584794847698625, "alt_km": 754.4025458406813, "timestamp": "2025-12-20T11:30:28.773793+00:00", "meta": {"OBJECT_NAME": "COSMOS 2251 DEB", "OBJECT_ID": "1993-036BNM", "EPOCH": "2025-12-14T09:22:45.259968", "MEAN_MOTION": 14.42410404, "ECCENTRICITY": 0.00160101, "INCLINATION": 74.0496, "RA_OF_ASC_NODE": 212.6604, "ARG_OF_PERICENTER": 313.2255, "MEAN_ANOMALY": 226.6563, "EPHEMERIS_TYPE": 0, "CLASSIFICATION_TYPE": "U", "NORAD_CAT_ID": 37532, "ELEMENT_SET_NO": 999, "REV_AT_EPOCH": 84939, "BSTAR": 0.00027461522, "MEAN_MOTION_DOT": 8.83e-06, "MEAN_MOTION_DDOT": 0}, "tle": {"line1": "1 37532U 93036BNM 25348.39080162  .00000883  00000+0  27462-3 0  9994", "line2": "2 37532  74.0496 212.6604 0016010 313.2255 226.6563 14.42410404849399"}}, "geometry": {"type": "Point", "coordinates": [-26.584794847698625, 68.94044734209999]}}, {"type": "Feature", "properties": {"norad_id": 37533, "name": "COSMOS 2251 DEB", "group": "cosmos-2251-debris", "lat": 67.24423205847312, "lon": -138.92027862669028, "alt_km": 951.5621323433952, "timestamp": "2025-12-20T11:30:28.773803+00:00", "meta": {"OBJECT_NAME": "COSMOS 2251 DEB", "OBJECT_ID": "1993-036BNN", "EPOCH": "2025-12-17T06:38:38.162976", "MEAN_MOTION": 14.12190824, "ECCENTRICITY": 0.0157786, "INCLINATION": 74.0692, "RA_OF_ASC_NODE": 183.8069, "ARG_OF_PERICENTER": 239.4795, "MEAN_ANOMALY": 119.0691, "EPHEMERIS_TYPE": 0, "CLASSIFICATION_TYPE": "U", "NORAD_CAT_ID": 37533, "ELEMENT_SET_NO": 999, "REV_AT_EPOCH": 62985, "BSTAR": 0.0010470743, "MEAN_MOTION_DOT": 2.138e-05, "MEAN_MOTION_DDOT": 0}, "tle": {"line1": "1 37533U 93036BNN 25351.27683059  .00002138  00000+0  10471-2 0  9996", "line2": "2 37533  74.0692 183.8069 0157786 239.4795 119.0691 14.12190824629858"}}, "geometry": {"type": "Point", "coordinates": [-138.92027862669028, 67.24423205847312]}}, {"type": "Feature", "properties": {"norad_id": 37535, "name": "COSMOS 2251 DEB", "group": "cosmos-2251-debris", "lat": -24.03558868254643, "lon": -113.902884101076, "alt_km": 683.9806810197215, "timestamp": "2025-12-20T11:30:28.773813+00:00", "meta": {"OBJECT_NAME": "COSMOS 2251 DEB", "OBJECT_ID": "1993-036BNQ", "EPOCH": "2025-12-19T15:30:43.235136", "MEAN_MOTION": 14.58499467, "ECCENTRICITY": 0.0027409, "INCLINATION": 74.024, "RA_OF_ASC_NODE": 60.3433, "ARG_OF_PERICENTER": 198.557, "MEAN_ANOMALY": 313.5255, "EPHEMERIS_TYPE": 0, "CLASSIFICATION_TYPE": "U", "NORAD_CAT_ID": 37535, "ELEMENT_SET_NO": 999, "REV_AT_EPOCH": 85425, "BSTAR": 0.0004624, "MEAN_MOTION_DOT": 2.129e-05, "MEAN_MOTION_DDOT": 0}, "tle": {"line1": "1 37535U 93036BNQ 25353.64633374  .00002129  00000+0  46240-3 0  9990", "line2": "2 37535  74.0240  60.3433 0027409 198.5570 313.5255 14.58499467854253"}}, "geometry": {"type": "Point", "coordinates": [-113.902884101076, -24.03558868254643]}}, {"type": "Feature", "properties": {"norad_id": 37537, "name": "COSMOS 2251 DEB", "group": "cosmos-2251-debris", "lat": 7.621597830245042, "lon": 68.66424008335794, "alt_km": 797.0643574738342, "timestamp": "2025-12-20T11:30:28.773823+00:00", "meta": {"OBJECT_NAME": "COSMOS 2251 DEB", "OBJECT_ID": "1993-036BNS", "EPOCH": "2025-12-18T00:15:20.074464", "MEAN_MOTION": 14.37498757, "ECCENTRICITY": 0.00505516, "INCLINATION": 74.0117, "RA_OF_ASC_NODE": 255.4114, "ARG_OF_PERICENTER": 34.2207, "MEAN_ANOMALY": 326.2186, "EPHEMERIS_TYPE": 0, "CLASSIFICATION_TYPE": "U", "NORAD_CAT_ID": 37537, "ELEMENT_SET_NO": 999, "REV_AT_EPOCH": 85109, "BSTAR": 0.00017725401, "MEAN_MOTION_DOT": 5.12e-06, "MEAN_MOTION_DDOT": 0}, "tle": {"line1": "1 37537U 93036BNS 25352.01064901  .00000512  00000+0  17725-3 0  9996", "line2": "2 37537  74.0117 255.4114 0050551  34.2207 326.2186 14.37498757851099"}}, "geometry": {"type": "Point", "coordinates": [68.66424008335794, 7.621597830245042]}}, {"type": "Feature", "properties": {"norad_id": 37546, "name": "COSMOS 2251 DEB", "group": "cosmos-2251-debris", "lat": 11.329054707491714, "lon": 86.02206796125576, "alt_km": 626.6911454552001, "timestamp": "2025-12-20T11:30:28.773832+00:00", "meta": {"OBJECT_NAME": "COSMOS 2251 DEB", "OBJECT_ID": "1993-036BPB", "EPOCH": "2025-12-19T06:16:07.383648", "MEAN_MOTION": 14.80755456, "ECCENTRICITY": 0.0005308, "INCLINATION": 74.0228, "RA_OF_ASC_NODE": 85.1349, "ARG_OF_PERICENTER": 85.4439, "MEAN_ANOMALY": 274.7344, "EPHEMERIS_TYPE": 0, "CLASSIFICATION_TYPE": "U", "NORAD_CAT_ID": 37546, "ELEMENT_SET_NO": 999, "REV_AT_EPOCH": 65984, "BSTAR": 0.001677, "MEAN_MOTION_DOT": 0.00012912, "MEAN_MOTION_DDOT": 0}, "tle": {"line1": "1 37546U 93036BPB 25353.26119657  .00012912  00000+0  16770-2 0  9998", "line2": "2 37546  74.0228  85.1349 0005308  85.4439 274.7344 14.80755456659847"}}, "geometry": {"type": "Point", "coordinates": [86.02206796125576, 11.329054707491714]}}, {"type": "Feature", "properties": {"norad_id": 37959, "name": "COSMOS 2251 DEB", "group": "cosmos-2251-debris", "lat": -56.25937226265246, "lon": 16.773290627645558, "alt_km": 723.9197399066206, "timestamp": "2025-12-20T11:30:28.773842+00:00", "meta": {"OBJECT_NAME": "COSMOS 2251 DEB", "OBJECT_ID": "1993-036BPJ", "EPOCH": "2025-12-19T21:47:02.000256", "MEAN_MOTION": 14.5818564, "ECCENTRICITY": 0.0057391, "INCLINATION": 74.0108, "RA_OF_ASC_NODE": 43.2841, "ARG_OF_PERICENTER": 184.5284, "MEAN_ANOMALY": 354.4409, "EPHEMERIS_TYPE": 0, "CLASSIFICATION_TYPE": "U", "NORAD_CAT_ID": 37959, "ELEMENT_SET_NO": 999, "REV_AT_EPOCH": 80231, "BSTAR": 0.00039942, "MEAN_MOTION_DOT": 1.854e-05, "MEAN_MOTION_DDOT": 0}, "tle": {"line1": "1 37959U 93036BPJ 25353.90766204  .00001854  00000+0  39942-3 0  9993", "line2": "2 37959  74.0108  43.2841 0057391 184.5284 354.4409 14.58185640802319"}}, "geometry": {"type": "Point", "coordinates": [16.773290627645558, -56.25937226265246]}}, {"type": "Feature", "properties": {"norad_id": 37960, "name": "COSMOS 2251 DEB", "group": "cosmos-2251-debris", "lat": -18.128959002922418, "lon": -1.3007774931310585, "alt_km": 693.137180370165, "timestamp": "2025-12-20T11:30:28.773852+00:00", "meta": {"OBJECT_NAME": "COSMOS 2251 DEB", "OBJECT_ID": "1993-036BPK", "EPOCH": "2025-12-16T19:35:27.740256", "MEAN_MOTION": 14.07867991, "ECCENTRICITY": 0.02485393, "INCLINATION": 74.059, "RA_OF_ASC_NODE": 179.7478, "ARG_OF_PERICENTER": 197.3915, "MEAN_ANOMALY": 161.86, "EPHEMERIS_TYPE": 0, "CLASSIFICATION_TYPE": "U", "NORAD_CAT_ID": 37960, "ELEMENT_SET_NO": 999, "REV_AT_EPOCH": 77463, "BSTAR": 0.00064570376, "MEAN_MOTION_DOT": 1.428e-05, "MEAN_MOTION_DDOT": 0}, "tle": {"line1": "1 37960U 93036BPK 25350.81629329  .00001428  00000+0  64570-3 0  9990", "line2": "2 37960  74.0590 179.7478 0248539 197.3915 161.8600 14.07867991774632"}}, "geometry": {"type": "Point", "coordinates": [-1.3007774931310585, -18.128959002922418]}}, {"type": "Feature", "properties": {"norad_id": 37961, "name": "COSMOS 2251 DEB", "group": "cosmos-2251-debris", "lat": 0.10908842291590826, "lon": 122.42424987639411, "alt_km": 728.812142107784, "timestamp": "2025-12-20T11:30:28.773862+00:00", "meta": {"OBJECT_NAME": "COSMOS 2251 DEB", "OBJECT_ID": "1993-036BPL", "EPOCH": "2025-12-13T03:18:27.462240", "MEAN_MOTION": 14.57979799, "ECCENTRICITY": 0.00406759, "INCLINATION": 74.0407, "RA_OF_ASC_NODE": 136.3488, "ARG_OF_PERICENTER": 216.8805, "MEAN_ANOMALY": 142.9561, "EPHEMERIS_TYPE": 0, "CLASSIFICATION_TYPE": "U", "NORAD_CAT_ID": 37961, "ELEMENT_SET_NO": 999, "REV_AT_EPOCH": 80071, "BSTAR": 0.001729191, "MEAN_MOTION_DOT": 8.011e-05, "MEAN_MOTION_DDOT": 0}, "tle": {"line1": "1 37961U 93036BPL 25347.13781785  .00008011  00000+0  17292-2 0  9990", "line2": "2 37961  74.0407 136.3488 0040675 216.8805 142.9561 14.57979799800716"}}, "geometry": {"type": "Point", "coordinates": [122.42424987639411, 0.10908842291590826]}}, {"type": "Feature", "properties": {"norad_id": 37966, "name": "COSMOS 2251 DEB", "group": "cosmos-2251-debris", "lat": -21.53807092408589, "lon": 40.95164102644123, "alt_km": 531.2315158522615, "timestamp": "2025-12-20T11:30:28.773872+00:00", "meta": {"OBJECT_NAME": "COSMOS 2251 DEB", "OBJECT_ID": "1993-036BPR", "EPOCH": "2025-12-13T08:51:38.453184", "MEAN_MOTION": 15.12754556, "ECCENTRICITY": 0.00088035, "INCLINATION": 73.9781, "RA_OF_ASC_NODE": 229.2381, "ARG_OF_PERICENTER": 105.8293, "MEAN_ANOMALY": 254.3871, "EPHEMERIS_TYPE": 0, "CLASSIFICATION_TYPE": "U", "NORAD_CAT_ID": 37966, "ELEMENT_SET_NO": 999, "REV_AT_EPOCH": 85352, "BSTAR": 0.0051051315, "MEAN_MOTION_DOT": 0.00090719, "MEAN_MOTION_DDOT": 0}, "tle": {"line1": "1 37966U 93036BPR 25347.36919506  .00090719  00000+0  51051-2 0  9991", "line2": "2 37966  73.9781 229.2381 0008803 105.8293 254.3871 15.12754556853526"}}, "geometry": {"type": "Point", "coordinates": [40.95164102644123, -21.53807092408589]}}, {"type": "Feature", "properties": {"norad_id": 37967, "name": "COSMOS 2251 DEB", "group": "cosmos-2251-debris", "lat": 4.937306549907717, "lon": 124.46466298394584, "alt_km": 785.0709527114059, "timestamp": "2025-12-20T11:30:28.773882+00:00", "meta": {"OBJECT_NAME": "COSMOS 2251 DEB", "OBJECT_ID": "1993-036BPS", "EPOCH": "2025-12-18T02:49:02.762976", "MEAN_MOTION": 14.40572571, "ECCENTRICITY": 0.01510178, "INCLINATION": 74.0151, "RA_OF_ASC_NODE": 127.4202, "ARG_OF_PERICENTER": 265.0646, "MEAN_ANOMALY": 93.3255, "EPHEMERIS_TYPE": 0, "CLASSIFICATION_TYPE": "U", "NORAD_CAT_ID": 37967, "ELEMENT_SET_NO": 999, "REV_AT_EPOCH": 64813, "BSTAR": 0.0013319552, "MEAN_MOTION_DOT": 4.831e-05, "MEAN_MOTION_DDOT": 0}, "tle": {"line1": "1 37967U 93036BPS 25352.11739309  .00004831  00000+0  13320-2 0  9999", "line2": "2 37967  74.0151 127.4202 0151017 265.0646  93.3255 14.40572571648139"}}, "geometry": {"type": "Point", "coordinates": [124.46466298394584, 4.937306549907717]}}]}